start=new Date('2023-01-07T00:00:00.000Z').valueOf();
sats=[{"MEAN_MOTION_DDOT":"0.0000000000000","TLE_LINE1":"1 53485U 22099W   23006.81119277 -.00001452  00000-0 -10850-3 0  9995","MEAN_MOTION_DOT":"-0.00001452","MEAN_ELEMENT_THEORY":"SGP4","ARG_OF_PERICENTER":"42.8631","EPHEMERIS_TYPE":"0","TLE_LINE2":"2 53485  97.6568 130.2128 0001734  42.8631 317.2728 15.01248748 22266","RCS_SIZE":"LARGE","REF_FRAME":"TEME","PERIAPSIS":"561.843","LAUNCH_DATE":"2022-08-12","PERIOD":"95.920","RA_OF_ASC_NODE":"130.2128","APOAPSIS":"564.250","NORAD_CAT_ID":"53485","TIME_SYSTEM":"UTC","OBJECT_ID":"2022-099W","SITE":"AFWTR","OBJECT_TYPE":"PAYLOAD","MEAN_MOTION":"15.01248748","DECAY_DATE":null,"REV_AT_EPOCH":"2226","COUNTRY_CODE":"US","INCLINATION":"97.6568","FILE":"3734255","MEAN_ANOMALY":"317.2728","GP_ID":"222346213","ECCENTRICITY":"0.00017340","ELEMENT_SET_NO":"999","CLASSIFICATION_TYPE":"U","EPOCH":"2023-01-06T19:28:07.055328","BSTAR":"-0.00010850000000","SEMIMAJOR_AXIS":"6941.182","OBJECT_NAME":"STARLINK-4430","CENTER_NAME":"EARTH"},{"RCS_SIZE":"LARGE","EPHEMERIS_TYPE":"0","TLE_LINE2":"2 53486  97.6574 130.2146 0002939  32.1206 328.0197 15.01261935 22265","ARG_OF_PERICENTER":"32.1206","MEAN_ELEMENT_THEORY":"SGP4","TLE_LINE1":"1 53486U 22099X   23006.81488030 -.00001615  00000-0 -12114-3 0  9998","MEAN_MOTION_DDOT":"0.0000000000000","MEAN_MOTION_DOT":"-0.00001615","INCLINATION":"97.6574","FILE":"3734255","COUNTRY_CODE":"US","REV_AT_EPOCH":"2226","MEAN_MOTION":"15.01261935","SITE":"AFWTR","OBJECT_TYPE":"PAYLOAD","DECAY_DATE":null,"OBJECT_ID":"2022-099X","TIME_SYSTEM":"UTC","APOAPSIS":"565.046","NORAD_CAT_ID":"53486","PERIOD":"95.919","LAUNCH_DATE":"2022-08-12","RA_OF_ASC_NODE":"130.2146","REF_FRAME":"TEME","PERIAPSIS":"560.966","EPOCH":"2023-01-06T19:33:25.657920","ELEMENT_SET_NO":"999","CLASSIFICATION_TYPE":"U","ECCENTRICITY":"0.00029390","GP_ID":"222346443","MEAN_ANOMALY":"328.0197","CENTER_NAME":"EARTH","OBJECT_NAME":"STARLINK-4431","SEMIMAJOR_AXIS":"6941.141","BSTAR":"-0.00012114000000"},{"MEAN_ANOMALY":"335.7933","GP_ID":"222347131","ECCENTRICITY":"0.00033700","CLASSIFICATION_TYPE":"U","ELEMENT_SET_NO":"999","EPOCH":"2023-01-06T06:34:55.687296","BSTAR":"-0.00029875000000","SEMIMAJOR_AXIS":"6941.132","OBJECT_NAME":"STARLINK-4432","CENTER_NAME":"EARTH","MEAN_MOTION_DOT":"-0.00003895","MEAN_MOTION_DDOT":"0.0000000000000","TLE_LINE1":"1 53487U 22099Y   23006.27425564 -.00003895  00000-0 -29875-3 0  9996","MEAN_ELEMENT_THEORY":"SGP4","ARG_OF_PERICENTER":"24.3450","TLE_LINE2":"2 53487  97.6556 129.6886 0003370  24.3450 335.7933 15.01264850 22186","EPHEMERIS_TYPE":"0","RCS_SIZE":"LARGE","PERIAPSIS":"560.658","REF_FRAME":"TEME","RA_OF_ASC_NODE":"129.6886","PERIOD":"95.919","LAUNCH_DATE":"2022-08-12","NORAD_CAT_ID":"53487","APOAPSIS":"565.336","TIME_SYSTEM":"UTC","OBJECT_ID":"2022-099Y","DECAY_DATE":null,"OBJECT_TYPE":"PAYLOAD","SITE":"AFWTR","MEAN_MOTION":"15.01264850","REV_AT_EPOCH":"2218","COUNTRY_CODE":"US","FILE":"3734255","INCLINATION":"97.6556"},{"NORAD_CAT_ID":"53488","APOAPSIS":"564.493","TIME_SYSTEM":"UTC","PERIAPSIS":"561.509","REF_FRAME":"TEME","RA_OF_ASC_NODE":"130.2139","LAUNCH_DATE":"2022-08-12","PERIOD":"95.919","REV_AT_EPOCH":"2226","COUNTRY_CODE":"US","FILE":"3734255","INCLINATION":"97.6571","OBJECT_ID":"2022-099Z","DECAY_DATE":null,"SITE":"AFWTR","MEAN_MOTION":"15.01263534","OBJECT_TYPE":"PAYLOAD","MEAN_MOTION_DOT":"-0.00002224","TLE_LINE1":"1 53488U 22099Z   23006.81303115 -.00002224  00000-0 -16862-3 0  9991","MEAN_MOTION_DDOT":"0.0000000000000","TLE_LINE2":"2 53488  97.6571 130.2139 0002150  43.8500 316.2895 15.01263534 22268","EPHEMERIS_TYPE":"0","RCS_SIZE":"LARGE","MEAN_ELEMENT_THEORY":"SGP4","ARG_OF_PERICENTER":"43.8500","BSTAR":"-0.00016862000000","CENTER_NAME":"EARTH","SEMIMAJOR_AXIS":"6941.136","OBJECT_NAME":"STARLINK-4421","MEAN_ANOMALY":"316.2895","GP_ID":"222345525","EPOCH":"2023-01-06T19:30:45.891360","ECCENTRICITY":"0.00021500","CLASSIFICATION_TYPE":"U","ELEMENT_SET_NO":"999"},{"TLE_LINE1":"1 53489U 22099AA  23006.80562476 -.00003440  00000-0 -26336-3 0  9996","MEAN_MOTION_DDOT":"0.0000000000000","MEAN_MOTION_DOT":"-0.00003440","RCS_SIZE":"LARGE","EPHEMERIS_TYPE":"0","TLE_LINE2":"2 53489  97.6563 130.2105 0002998  13.0420 347.0881 15.01250435 22266","ARG_OF_PERICENTER":"13.0420","MEAN_ELEMENT_THEORY":"SGP4","TIME_SYSTEM":"UTC","APOAPSIS":"565.122","NORAD_CAT_ID":"53489","PERIOD":"95.920","LAUNCH_DATE":"2022-08-12","RA_OF_ASC_NODE":"130.2105","REF_FRAME":"TEME","PERIAPSIS":"560.960","INCLINATION":"97.6563","FILE":"3734255","REV_AT_EPOCH":"2226","COUNTRY_CODE":"US","MEAN_MOTION":"15.01250435","SITE":"AFWTR","OBJECT_TYPE":"PAYLOAD","DECAY_DATE":null,"OBJECT_ID":"2022-099AA","GP_ID":"222345755","MEAN_ANOMALY":"347.0881","EPOCH":"2023-01-06T19:20:05.979264","ELEMENT_SET_NO":"999","CLASSIFICATION_TYPE":"U","ECCENTRICITY":"0.00029980","BSTAR":"-0.00026336000000","CENTER_NAME":"EARTH","OBJECT_NAME":"STARLINK-4392","SEMIMAJOR_AXIS":"6941.176"},{"SEMIMAJOR_AXIS":"6941.140","OBJECT_NAME":"STARLINK-4387","CENTER_NAME":"EARTH","BSTAR":"-0.00038650000000","ECCENTRICITY":"0.00027400","CLASSIFICATION_TYPE":"U","ELEMENT_SET_NO":"999","EPOCH":"2023-01-06T06:37:35.359680","MEAN_ANOMALY":"327.3936","GP_ID":"222346902","OBJECT_ID":"2022-099AB","DECAY_DATE":null,"SITE":"AFWTR","OBJECT_TYPE":"PAYLOAD","MEAN_MOTION":"15.01262089","REV_AT_EPOCH":"2218","COUNTRY_CODE":"US","FILE":"3734255","INCLINATION":"97.6559","PERIAPSIS":"561.104","REF_FRAME":"TEME","RA_OF_ASC_NODE":"129.6845","LAUNCH_DATE":"2022-08-12","PERIOD":"95.919","NORAD_CAT_ID":"53490","APOAPSIS":"564.907","TIME_SYSTEM":"UTC","MEAN_ELEMENT_THEORY":"SGP4","ARG_OF_PERICENTER":"32.7458","TLE_LINE2":"2 53490  97.6559 129.6845 0002740  32.7458 327.3936 15.01262089 22181","EPHEMERIS_TYPE":"0","RCS_SIZE":"LARGE","MEAN_MOTION_DOT":"-0.00005020","TLE_LINE1":"1 53490U 22099AB  23006.27610370 -.00005020  00000-0 -38650-3 0  9994","MEAN_MOTION_DDOT":"0.0000000000000"},{"CENTER_NAME":"EARTH","SEMIMAJOR_AXIS":"6941.175","OBJECT_NAME":"STARLINK-4450","BSTAR":"-0.00017840000000","EPOCH":"2023-01-06T08:02:56.200416","ECCENTRICITY":"0.00032830","ELEMENT_SET_NO":"999","CLASSIFICATION_TYPE":"U","MEAN_ANOMALY":"343.5772","GP_ID":"222346673","REV_AT_EPOCH":"2219","COUNTRY_CODE":"US","INCLINATION":"97.6547","FILE":"3734255","OBJECT_ID":"2022-099AC","MEAN_MOTION":"15.01250738","SITE":"AFWTR","OBJECT_TYPE":"PAYLOAD","DECAY_DATE":null,"APOAPSIS":"565.319","NORAD_CAT_ID":"53491","TIME_SYSTEM":"UTC","REF_FRAME":"TEME","PERIAPSIS":"560.762","LAUNCH_DATE":"2022-08-12","PERIOD":"95.920","RA_OF_ASC_NODE":"129.7452","EPHEMERIS_TYPE":"0","TLE_LINE2":"2 53491  97.6547 129.7452 0003283  16.5559 343.5772 15.01250738 22196","RCS_SIZE":"LARGE","MEAN_ELEMENT_THEORY":"SGP4","ARG_OF_PERICENTER":"16.5559","TLE_LINE1":"1 53491U 22099AC  23006.33537269 -.00002349  00000-0 -17840-3 0  9996","MEAN_MOTION_DDOT":"0.0000000000000","MEAN_MOTION_DOT":"-0.00002349"},{"MEAN_MOTION_DOT":"-0.00010431","TLE_LINE1":"1 53492U 22099AD  23006.53926002 -.00010431  00000-0 -80894-3 0  9996","MEAN_MOTION_DDOT":"0.0000000000000","RCS_SIZE":"LARGE","TLE_LINE2":"2 53492  97.6550 129.9467 0002901  22.5759 337.5592 15.01245572 22221","EPHEMERIS_TYPE":"0","ARG_OF_PERICENTER":"22.5759","MEAN_ELEMENT_THEORY":"SGP4","TIME_SYSTEM":"UTC","NORAD_CAT_ID":"53492","APOAPSIS":"565.070","RA_OF_ASC_NODE":"129.9467","LAUNCH_DATE":"2022-08-12","PERIOD":"95.920","PERIAPSIS":"561.043","REF_FRAME":"TEME","FILE":"3734255","INCLINATION":"97.6550","REV_AT_EPOCH":"2222","COUNTRY_CODE":"US","DECAY_DATE":null,"MEAN_MOTION":"15.01245572","SITE":"AFWTR","OBJECT_TYPE":"PAYLOAD","OBJECT_ID":"2022-099AD","GP_ID":"222345985","MEAN_ANOMALY":"337.5592","EPOCH":"2023-01-06T12:56:32.065728","CLASSIFICATION_TYPE":"U","ELEMENT_SET_NO":"999","ECCENTRICITY":"0.00029010","BSTAR":"-0.00080894000000","CENTER_NAME":"EARTH","OBJECT_NAME":"STARLINK-4451","SEMIMAJOR_AXIS":"6941.191"},{"ARG_OF_PERICENTER":"36.5324","MEAN_ELEMENT_THEORY":"SGP4","RCS_SIZE":"LARGE","TLE_LINE2":"2 53493  97.6541 130.0006 0002502  36.5324 323.6070 15.01251312 22231","EPHEMERIS_TYPE":"0","MEAN_MOTION_DOT":"-0.00003660","TLE_LINE1":"1 53493U 22099AE  23006.59850518 -.00003660  00000-0 -28054-3 0  9997","MEAN_MOTION_DDOT":"0.0000000000000","DECAY_DATE":null,"SITE":"AFWTR","MEAN_MOTION":"15.01251312","OBJECT_TYPE":"PAYLOAD","OBJECT_ID":"2022-099AE","FILE":"3734255","INCLINATION":"97.6541","REV_AT_EPOCH":"2223","COUNTRY_CODE":"US","RA_OF_ASC_NODE":"130.0006","PERIOD":"95.920","LAUNCH_DATE":"2022-08-12","PERIAPSIS":"561.302","REF_FRAME":"TEME","TIME_SYSTEM":"UTC","NORAD_CAT_ID":"53493","APOAPSIS":"564.775","CLASSIFICATION_TYPE":"U","ELEMENT_SET_NO":"999","ECCENTRICITY":"0.00025020","EPOCH":"2023-01-06T14:21:50.847552","GP_ID":"222346214","MEAN_ANOMALY":"323.6070","OBJECT_NAME":"STARLINK-4361","SEMIMAJOR_AXIS":"6941.174","CENTER_NAME":"EARTH","BSTAR":"-0.00028054000000"},{"TLE_LINE1":"1 53494U 22099AF  23006.60381742 -.00006397  00000-0 -49391-3 0  9995","MEAN_MOTION_DDOT":"0.0000000000000","MEAN_MOTION_DOT":"-0.00006397","ARG_OF_PERICENTER":"36.7988","MEAN_ELEMENT_THEORY":"SGP4","RCS_SIZE":"LARGE","EPHEMERIS_TYPE":"0","TLE_LINE2":"2 53494  97.6533 130.0063 0002730  36.7988 323.3423 15.01253635 22236","PERIOD":"95.920","LAUNCH_DATE":"2022-08-12","RA_OF_ASC_NODE":"130.0063","REF_FRAME":"TEME","PERIAPSIS":"561.137","TIME_SYSTEM":"UTC","APOAPSIS":"564.926","NORAD_CAT_ID":"53494","SITE":"AFWTR","MEAN_MOTION":"15.01253635","OBJECT_TYPE":"PAYLOAD","DECAY_DATE":null,"OBJECT_ID":"2022-099AF","INCLINATION":"97.6533","FILE":"3734255","COUNTRY_CODE":"US","REV_AT_EPOCH":"2223","GP_ID":"222346444","MEAN_ANOMALY":"323.3423","ELEMENT_SET_NO":"999","CLASSIFICATION_TYPE":"U","ECCENTRICITY":"0.00027300","EPOCH":"2023-01-06T14:29:29.825088","BSTAR":"-0.00049391000000","OBJECT_NAME":"STARLINK-4340","SEMIMAJOR_AXIS":"6941.166","CENTER_NAME":"EARTH"}];
